{"type": "FeatureCollection", "features": [ {"type": "Feature", "properties": {"norad_id": 34634, "name": "COSMOS 2251 DEB", "group": "cosmos-2251-debris", "lat": -5.418724598556854, "lon": 37.430733195524816, "alt_km": 738.3952851491022, "timestamp": "2025-12-10T14:53:37.482741+00:00", "meta": {"OBJECT_NAME": "COSMOS 2251 DEB", "OBJECT_ID": "1993-036XF", "EPOCH": "2025-12-10T05:17:05.491680", "MEAN_MOTION": 14.55647072, "ECCENTRICITY": 0.00442951, "INCLINATION": 74.0526, "RA_OF_ASC_NODE": 39.7426, "ARG_OF_PERICENTER": 147.8754, "MEAN_ANOMALY": 269.6264, "EPHEMERIS_TYPE": 0, "CLASSIFICATION_TYPE": "U", "NORAD_CAT_ID": 34634, "ELEMENT_SET_NO": 999, "REV_AT_EPOCH": 88745, "BSTAR": 0.00051390133, "MEAN_MOTION_DOT": 2.245e-05, "MEAN_MOTION_DDOT": 0}, "tle": {"line1": "1 34634U 93036XF  25344.22020245  .00002245  00000+0  51390-3 0  9999", "line2": "2 34634  74.0526  39.7426 0044295 147.8754 269.6264 14.55647072887455"}}, "geometry": {"type": "Point", "coordinates": [37.430733195524816, -5.418724598556854]}}, {"type": "Feature", "properties": {"norad_id": 34635, "name": "COSMOS 2251 DEB", "group": "cosmos-2251-debris", "lat": 56.04146150084879, "lon": -130.32704584723984, "alt_km": 642.5308904890853, "timestamp": "2025-12-10T14:53:37.482750+00:00", "meta": {"OBJECT_NAME": "COSMOS 2251 DEB", "OBJECT_ID": "1993-036XG", "EPOCH": "2025-12-10T06:18:49.006944", "MEAN_MOTION": 14.68209751, "ECCENTRICITY": 0.00287703, "INCLINATION": 74.0454, "RA_OF_ASC_NODE": 75.5009, "ARG_OF_PERICENTER": 145.0871, "MEAN_ANOMALY": 246.5324, "EPHEMERIS_TYPE": 0, "CLASSIFICATION_TYPE": "U", "NORAD_CAT_ID": 34635, "ELEMENT_SET_NO": 999, "REV_AT_EPOCH": 73183, "BSTAR": 0.0020802418, "MEAN_MOTION_DOT": 0.00012045, "MEAN_MOTION_DDOT": 0}, "tle": {"line1": "1 34635U 93036XG  25344.26306721  .00012045  00000+0  20802-2 0  9992", "line2": "2 34635  74.0454  75.5009 0028770 145.0871 246.5324 14.68209751731834"}}, "geometry": {"type": "Point", "coordinates": [-130.32704584723984, 56.04146150084879]}}, {"type": "Feature", "properties": {"norad_id": 34637, "name": "COSMOS 2251 DEB", "group": "cosmos-2251-debris", "lat": 11.981402291285098, "lon": 108.67818150657884, "alt_km": 727.8659935177202, "timestamp": "2025-12-10T14:53:37.482759+00:00", "meta": {"OBJECT_NAME": "COSMOS 2251 DEB", "OBJECT_ID": "1993-036XJ", "EPOCH": "2025-12-09T18:13:09.558624", "MEAN_MOTION": 14.60049838, "ECCENTRICITY": 0.00500645, "INCLINATION": 74.0498, "RA_OF_ASC_NODE": 106.8405, "ARG_OF_PERICENTER": 178.0438, "MEAN_ANOMALY": 348.6861, "EPHEMERIS_TYPE": 0, "CLASSIFICATION_TYPE": "U", "NORAD_CAT_ID": 34637, "ELEMENT_SET_NO": 999, "REV_AT_EPOCH": 88483, "BSTAR": 0.0018000024, "MEAN_MOTION_DOT": 8.782e-05, "MEAN_MOTION_DDOT": 0}, "tle": {"line1": "1 34637U 93036XJ  25343.75913841  .00008782  00000+0  18000-2 0  9994", "line2": "2 34637  74.0498 106.8405 0050064 178.0438 348.6861 14.60049838884837"}}, "geometry": {"type": "Point", "coordinates": [108.67818150657884, 11.981402291285098]}}, {"type": "Feature", "properties": {"norad_id": 34641, "name": "COSMOS 2251 DEB", "group": "cosmos-2251-debris", "lat": 60.75014570710939, "lon": 116.87390121805933, "alt_km": 707.3159333662979, "timestamp": "2025-12-10T14:53:37.482768+00:00", "meta": {"OBJECT_NAME": "COSMOS 2251 DEB", "OBJECT_ID": "1993-036XN", "EPOCH": "2025-12-08T08:18:31.274784", "MEAN_MOTION": 14.51947493, "ECCENTRICITY": 0.00179207, "INCLINATION": 73.839, "RA_OF_ASC_NODE": 90.0233, "ARG_OF_PERICENTER": 6.2701, "MEAN_ANOMALY": 55.3534, "EPHEMERIS_TYPE": 0, "CLASSIFICATION_TYPE": "U", "NORAD_CAT_ID": 34641, "ELEMENT_SET_NO": 999, "REV_AT_EPOCH": 88192, "BSTAR": 0.0014885346, "MEAN_MOTION_DOT": 5.995e-05, "MEAN_MOTION_DDOT": 0}, "tle": {"line1": "1 34641U 93036XN  25342.34619531  .00005995  00000+0  14885-2 0  9992", "line2": "2 34641  73.8390  90.0233 0017920   6.2701  55.3534 14.51947493881922"}}, "geometry": {"type": "Point", "coordinates": [116.87390121805933, 60.75014570710939]}}, {"type": "Feature", "properties": {"norad_id": 34642, "name": "COSMOS 2251 DEB", "group": "cosmos-2251-debris", "lat": -14.280272829873631, "lon": 167.65906735204672, "alt_km": 771.2821985170795, "timestamp": "2025-12-10T14:53:37.482777+00:00", "meta": {"OBJECT_NAME": "COSMOS 2251 DEB", "OBJECT_ID": "1993-036XP", "EPOCH": "2025-12-10T00:24:07.917984", "MEAN_MOTION": 13.98961985, "ECCENTRICITY": 0.02074431, "INCLINATION": 74.0052, "RA_OF_ASC_NODE": 344.5178, "ARG_OF_PERICENTER": 165.03, "MEAN_ANOMALY": 228.7298, "EPHEMERIS_TYPE": 0, "CLASSIFICATION_TYPE": "U", "NORAD_CAT_ID": 34642, "ELEMENT_SET_NO": 999, "REV_AT_EPOCH": 85255, "BSTAR": 0.0011462498, "MEAN_MOTION_DOT": 1.968e-05, "MEAN_MOTION_DDOT": 0}, "tle": {"line1": "1 34642U 93036XP  25344.01675831  .00001968  00000+0  11462-2 0  9998", "line2": "2 34642  74.0052 344.5178 0207443 165.0300 228.7298 13.98961985852558"}}, "geometry": {"type": "Point", "coordinates": [167.65906735204672, -14.280272829873631]}}, {"type": "Feature", "properties": {"norad_id": 34671, "name": "COSMOS 2251 DEB", "group": "cosmos-2251-debris", "lat": 52.38177450883623, "lon": 160.20740256719802, "alt_km": 673.7055505670005, "timestamp": "2025-12-10T14:53:37.482786+00:00", "meta": {"OBJECT_NAME": "COSMOS 2251 DEB", "OBJECT_ID": "1993-036XR", "EPOCH": "2025-12-09T17:26:17.672352", "MEAN_MOTION": 14.66843353, "ECCENTRICITY": 0.00116921, "INCLINATION": 74.0267, "RA_OF_ASC_NODE": 140.1121, "ARG_OF_PERICENTER": 220.0956, "MEAN_ANOMALY": 156.6146, "EPHEMERIS_TYPE": 0, "CLASSIFICATION_TYPE": "U", "NORAD_CAT_ID": 34671, "ELEMENT_SET_NO": 999, "REV_AT_EPOCH": 88253, "BSTAR": 0.0027981051, "MEAN_MOTION_DOT": 0.00015648, "MEAN_MOTION_DDOT": 0}, "tle": {"line1": "1 34671U 93036XR  25343.72659343  .00015648  00000+0  27981-2 0  9990", "line2": "2 34671  74.0267 140.1121 0011692 220.0956 156.6146 14.66843353882530"}}, "geometry": {"type": "Point", "coordinates": [160.20740256719802, 52.38177450883623]}}, {"type": "Feature", "properties": {"norad_id": 34672, "name": "COSMOS 2251 DEB", "group": "cosmos-2251-debris", "lat": 66.2986868733723, "lon": 88.78005804130301, "alt_km": 762.3104117171079, "timestamp": "2025-12-10T14:53:37.482795+00:00", "meta": {"OBJECT_NAME": "COSMOS 2251 DEB", "OBJECT_ID": "1993-036XS", "EPOCH": "2025-12-08T07:33:35.281152", "MEAN_MOTION": 14.36398163, "ECCENTRICITY": 0.00235672, "INCLINATION": 74.0335, "RA_OF_ASC_NODE": 313.7193, "ARG_OF_PERICENTER": 26.7043, "MEAN_ANOMALY": 43.2667, "EPHEMERIS_TYPE": 0, "CLASSIFICATION_TYPE": "U", "NORAD_CAT_ID": 34672, "ELEMENT_SET_NO": 999, "REV_AT_EPOCH": 65114, "BSTAR": 0.00050497184, "MEAN_MOTION_DOT": 1.458e-05, "MEAN_MOTION_DDOT": 0}, "tle": {"line1": "1 34672U 93036XS  25342.31499168  .00001458  00000+0  50497-3 0  9995", "line2": "2 34672  74.0335 313.7193 0023567  26.7043  43.2667 14.36398163651147"}}, "geometry": {"type": "Point", "coordinates": [88.78005804130301, 66.2986868733723]}}, {"type": "Feature", "properties": {"norad_id": 34678, "name": "COSMOS 2251 DEB", "group": "cosmos-2251-debris", "lat": -20.797893199680672, "lon": 3.3053088118154625, "alt_km": 793.6056308378666, "timestamp": "2025-12-10T14:53:37.482804+00:00", "meta": {"OBJECT_NAME": "COSMOS 2251 DEB", "OBJECT_ID": "1993-036XY", "EPOCH": "2025-12-10T01:42:15.429024", "MEAN_MOTION": 14.30064327, "ECCENTRICITY": 0.00243578, "INCLINATION": 74.0378, "RA_OF_ASC_NODE": 10.545, "ARG_OF_PERICENTER": 60.5337, "MEAN_ANOMALY": 330.0436, "EPHEMERIS_TYPE": 0, "CLASSIFICATION_TYPE": "U", "NORAD_CAT_ID": 34678, "ELEMENT_SET_NO": 999, "REV_AT_EPOCH": 87341, "BSTAR": 4.293257e-05, "MEAN_MOTION_DOT": 8.6e-07, "MEAN_MOTION_DDOT": 0}, "tle": {"line1": "1 34678U 93036XY  25344.07101191  .00000086  00000+0  42933-4 0  9995", "line2": "2 34678  74.0378  10.5450 0024357  60.5337 330.0436 14.30064327873411"}}, "geometry": {"type": "Point", "coordinates": [3.3053088118154625, -20.797893199680672]}}, {"type": "Feature", "properties": {"norad_id": 34680, "name": "COSMOS 2251 DEB", "group": "cosmos-2251-debris", "lat": 26.681089209162664, "lon": 142.17091619137267, "alt_km": 694.4436749927763, "timestamp": "2025-12-10T14:53:37.482813+00:00", "meta": {"OBJECT_NAME": "COSMOS 2251 DEB", "OBJECT_ID": "1993-036YA", "EPOCH": "2025-12-09T21:22:51.073824", "MEAN_MOTION": 14.60570538, "ECCENTRICITY": 0.00068604, "INCLINATION": 74.043, "RA_OF_ASC_NODE": 135.2964, "ARG_OF_PERICENTER": 231.5202, "MEAN_ANOMALY": 281.1318, "EPHEMERIS_TYPE": 0, "CLASSIFICATION_TYPE": "U", "NORAD_CAT_ID": 34680, "ELEMENT_SET_NO": 999, "REV_AT_EPOCH": 88286, "BSTAR": 0.0017598768, "MEAN_MOTION_DOT": 8.536e-05, "MEAN_MOTION_DDOT": 0}, "tle": {"line1": "1 34680U 93036YA  25343.89086891  .00008536  00000+0  17599-2 0  9992", "line2": "2 34680  74.0430 135.2964 0006860 231.5202 281.1318 14.60570538882861"}}, "geometry": {"type": "Point", "coordinates": [142.17091619137267, 26.681089209162664]}}, {"type": "Feature", "properties": {"norad_id": 34681, "name": "COSMOS 2251 DEB", "group": "cosmos-2251-debris", "lat": 73.20005508422746, "lon": 5.752625359448312, "alt_km": 612.9965653854078, "timestamp": "2025-12-10T14:53:37.482822+00:00", "meta": {"OBJECT_NAME": "COSMOS 2251 DEB", "OBJECT_ID": "1993-036YB", "EPOCH": "2025-12-10T07:05:54.559968", "MEAN_MOTION": 14.8311954, "ECCENTRICITY": 0.00256248, "INCLINATION": 74.0627, "RA_OF_ASC_NODE": 295.2266, "ARG_OF_PERICENTER": 352.3104, "MEAN_ANOMALY": 158.58, "EPHEMERIS_TYPE": 0, "CLASSIFICATION_TYPE": "U", "NORAD_CAT_ID": 34681, "ELEMENT_SET_NO": 999, "REV_AT_EPOCH": 89234, "BSTAR": 0.0025092974, "MEAN_MOTION_DOT": 0.000206, "MEAN_MOTION_DDOT": 0}, "tle": {"line1": "1 34681U 93036YB  25344.29577037  .00020600  00000+0  25093-2 0  9999", "line2": "2 34681  74.0627 295.2266 0025624 352.3104 158.5800 14.83119540892348"}}, "geometry": {"type": "Point", "coordinates": [5.752625359448312, 73.20005508422746]}}]}